NORAD_CAT_ID,OBJECT_NAME,OBJECT_TYPE,EPOCH,MEAN_MOTION,ECCENTRICITY,INCLINATION,RA_OF_ASC_NODE,ARG_OF_PERICENTER,MEAN_ANOMALY,BSTAR,MEAN_MOTION_DOT,MEAN_MOTION_DDOT,TLE_LINE0,TLE_LINE1,TLE_LINE2,SEMIMAJOR_AXIS,PERIOD,APOGEE,PERIGEE,DECAYED
56455.0,STARLINK-5987,PAYLOAD,2023-05-28 22:00:00,15.69875447,0.0003405,69.999,194.1647,267.8973,322.3016,0.00055465,0.00066878,0.0,0 STARLINK-5987,1 56455U 23064H   23148.91667824  .00066878  00000-0  55465-3 0  9994,2 56455  69.9990 194.1647 0003405 267.8973 322.3016 15.69875447  3236,6737.39,91.727,361.549,356.961,0.0
56455.0,STARLINK-5987,PAYLOAD,2023-05-29 12:18:53,15.69934794,0.0003425,69.9989,192.4882,270.2046,89.8757,0.00020049,0.00023974,0.0,0 STARLINK-5987,1 56455U 23064H   23149.51312281  .00023974  00000-0  20049-3 0  9995,2 56455  69.9989 192.4882 0003425 270.2046  89.8757 15.69934794  2975,6737.221,91.724,361.393,356.778,0.0
56455.0,STARLINK-5987,PAYLOAD,2023-05-29 14:00:01,15.69930409,0.0003476,69.9992,192.2903,271.5197,125.3141,6.4561e-05,7.559e-05,0.0,0 STARLINK-5987,1 56455U 23064H   23149.58334491  .00007559  00000-0  64561-4 0  9998,2 56455  69.9992 192.2903 0003476 271.5197 125.3141 15.69930409  3331,6737.233,91.724,361.44,356.756,0.0
56455.0,STARLINK-5987,PAYLOAD,2023-05-29 19:57:39,15.699381,0.0003453,69.9988,191.592,267.7705,92.3095,0.00020092,0.0002403,0.0,0 STARLINK-5987,1 56455U 23064H   23149.83170546  .00024030  00000-0  20092-3 0  9998,2 56455  69.9988 191.5920 0003453 267.7705  92.3095 15.69938100  3027,6737.211,91.723,361.402,356.75,0.0
56455.0,STARLINK-5987,PAYLOAD,2023-05-30 02:04:40,15.69927215,0.0004309,69.9989,190.8755,286.2689,73.8033,0.00015295,0.00018224,0.0,0 STARLINK-5987,1 56455U 23064H   23150.08657604  .00018224  00000-0  15295-3 0  9999,2 56455  69.9989 190.8755 0004309 286.2689  73.8033 15.69927215  3418,6737.242,91.724,362.01,356.204,0.0
56455.0,STARLINK-5987,PAYLOAD,2023-05-30 12:46:55,15.69944615,0.0003546,69.9989,189.6218,264.9962,95.0829,0.00021616,0.00025882,0.0,0 STARLINK-5987,1 56455U 23064H   23150.53258745  .00025882  00000-0  21616-3 0  9994,2 56455  69.9989 189.6218 0003546 264.9962  95.0829 15.69944615  3138,6737.192,91.723,361.446,356.668,0.0
56455.0,STARLINK-5987,PAYLOAD,2023-05-30 18:53:56,15.69935417,0.000323,69.9989,188.9053,272.6774,87.4052,0.00018341,0.00021908,0.0,0 STARLINK-5987,1 56455U 23064H   23150.78745779  .00021908  00000-0  18341-3 0  9995,2 56455  69.9989 188.9053 0003230 272.6774  87.4052 15.69935417  3520,6737.219,91.724,361.26,356.908,0.0
56455.0,STARLINK-5987,PAYLOAD,2023-05-30 20:25:41,15.69934566,0.0003456,69.9989,188.7259,268.4111,91.6689,0.0001422,0.00016928,0.0,0 STARLINK-5987,1 56455U 23064H   23150.85117285  .00016928  00000-0  14220-3 0  9996,2 56455  69.9989 188.7259 0003456 268.4111  91.6689 15.69934566  3183,6737.221,91.724,361.415,356.758,0.0
56455.0,STARLINK-5987,PAYLOAD,2023-05-31 10:11:27,15.69934293,0.0003486,69.9986,187.1131,266.5401,93.5396,0.00010956,0.00012987,0.0,0 STARLINK-5987,1 56455U 23064H   23151.42462163  .00012987  00000-0  10956-3 0  9991,2 56455  69.9986 187.1131 0003486 266.5401  93.5396 15.69934293  3628,6737.222,91.724,361.436,356.738,0.0
56455.0,STARLINK-5987,PAYLOAD,2023-05-31 11:43:12,15.69933162,0.0003498,69.9987,186.9344,265.7253,94.3543,6.2548e-05,7.318e-05,0.0,0 STARLINK-5987,1 56455U 23064H   23151.48833841  .00007318  00000-0  62548-4 0  9999,2 56455  69.9987 186.9344 0003498 265.7253  94.3543 15.69933162  3280,6737.225,91.724,361.447,356.734,0.0
56455.0,STARLINK-5987,PAYLOAD,2023-05-31 20:53:43,15.69925112,0.0003551,69.9984,185.8593,267.6508,92.4281,1.9399e-05,2.12e-05,0.0,0 STARLINK-5987,1 56455U 23064H   23151.87064043  .00002120  00000-0  19399-4 0  9994,2 56455  69.9984 185.8593 0003551 267.6508  92.4281 15.69925112  3346,6737.248,91.724,361.506,356.721,0.0
56455.0,STARLINK-5987,PAYLOAD,2023-06-01 03:00:43,15.69921543,0.000352,69.998,185.1424,268.3694,91.7099,2.7247e-07,-1.8e-06,0.0,0 STARLINK-5987,1 56455U 23064H   23152.12550891 -.00000180  00000-0  27247-6 0  9992,2 56455  69.9980 185.1424 0003520 268.3694  91.7099 15.69921543  3734,6737.258,91.724,361.495,356.752,0.0
56455.0,STARLINK-5987,PAYLOAD,2023-06-01 06:04:14,15.6992284,0.0003506,69.9975,184.784,268.5634,91.516,-6.6814e-07,-2.93e-06,0.0,0 STARLINK-5987,1 56455U 23064H   23152.25294264 -.00000293  00000-0 -66814-6 0  9994,2 56455  69.9975 184.7840 0003506 268.5634  91.5160 15.69922840  3407,6737.255,91.724,361.482,356.758,0.0
56455.0,STARLINK-5987,PAYLOAD,2023-06-01 19:50:00,15.69929809,0.0003497,69.998,183.1723,266.6647,93.4149,2.8206e-05,3.181e-05,0.0,0 STARLINK-5987,1 56455U 23064H   23152.82638923  .00003181  00000-0  28206-4 0  9999,2 56455  69.9980 183.1723 0003497 266.6647  93.4149 15.69929809  3497,6737.235,91.724,361.456,356.744,0.0
56455.0,STARLINK-5987,PAYLOAD,2023-06-02 09:35:46,15.69923555,0.0003435,69.9977,181.5601,265.5774,94.5029,1.1045e-05,1.115e-05,0.0,0 STARLINK-5987,1 56455U 23064H   23153.39984220  .00001115  00000-0  11045-4 0  9994,2 56455  69.9977 181.5601 0003435 265.5774  94.5029 15.69923555  3931,6737.253,91.724,361.432,356.803,0.0
56455.0,STARLINK-5987,PAYLOAD,2023-06-02 11:07:31,15.6992074,0.0003479,69.9977,181.381,265.7356,94.3443,2.9327e-06,1.4e-06,0.0,0 STARLINK-5987,1 56455U 23064H   23153.46355995  .00000140  00000-0  29327-5 0  9993,2 56455  69.9977 181.3810 0003479 265.7356  94.3443 15.69920740  3590,6737.261,91.724,361.47,356.782,0.0
56455.0,STARLINK-5987,PAYLOAD,2023-06-02 18:46:17,15.69924722,0.0003468,69.9972,180.4853,266.1896,93.8903,6.1657e-06,5.29e-06,0.0,0 STARLINK-5987,1 56455U 23064H   23153.78214271  .00000529  00000-0  61657-5 0  9992,2 56455  69.9972 180.4853 0003468 266.1896  93.8903 15.69924722  3649,6737.249,91.724,361.451,356.778,0.0
56455.0,STARLINK-5987,PAYLOAD,2023-06-03 10:03:48,15.69926617,0.0003569,69.9973,178.6938,266.274,93.8048,2.0771e-05,2.286e-05,0.0,0 STARLINK-5987,1 56455U 23064H   23154.41930927  .00002286  00000-0  20771-4 0  9999,2 56455  69.9973 178.6938 0003569 266.2740  93.8048 15.69926617  4099,6737.244,91.724,361.513,356.704,0.0
56455.0,STARLINK-5987,PAYLOAD,2023-06-03 11:35:33,15.69927009,0.0003566,69.9974,178.5146,266.4999,93.5789,1.8678e-05,2.034e-05,0.0,0 STARLINK-5987,1 56455U 23064H   23154.48302570  .00002034  00000-0  18678-4 0  9997,2 56455  69.9974 178.5146 0003566 266.4999  93.5789 15.69927009  3752,6737.243,91.724,361.51,356.705,0.0
56455.0,STARLINK-5987,PAYLOAD,2023-06-03 19:14:19,15.69923585,0.0003458,69.9973,177.6189,265.717,94.363,4.5412e-06,3.33e-06,0.0,0 STARLINK-5987,1 56455U 23064H   23154.80161089  .00000333  00000-0  45412-5 0  9998,2 56455  69.9973 177.6189 0003458 265.7170  94.3630 15.69923585  3806,6737.253,91.724,361.447,356.788,0.0
56455.0,STARLINK-5987,PAYLOAD,2023-06-04 10:31:50,15.69923367,0.0003449,69.9971,175.8273,266.5342,93.5459,1.6676e-05,1.793e-05,0.0,0 STARLINK-5987,1 56455U 23064H   23155.43877868  .00001793  00000-0  16676-4 0  9997,2 56455  69.9971 175.8273 0003449 266.5342  93.5459 15.69923367  4256,6737.253,91.724,361.442,356.795,0.0
56455.0,STARLINK-5987,PAYLOAD,2023-06-04 15:07:05,15.69929729,0.0003345,69.997,175.2898,267.6539,92.4273,-3.569e-06,-6.42e-06,0.0,0 STARLINK-5987,1 56455U 23064H   23155.62992721 -.00000642  00000-0 -35690-5 0  9996,2 56455  69.9970 175.2898 0003345 267.6539  92.4273 15.69929729  3931,6737.235,91.724,361.354,356.846,0.0
56455.0,STARLINK-5987,PAYLOAD,2023-06-05 12:31:37,15.69926541,0.0003507,69.9968,172.782,266.8672,93.2122,7.0609e-06,6.36e-06,0.0,0 STARLINK-5987,1 56455U 23064H   23156.52196145  .00000636  00000-0  70609-5 0  9992,2 56455  69.9968 172.7820 0003507 266.8672  93.2122 15.69926541  4071,6737.244,91.724,361.472,356.746,0.0
56455.0,STARLINK-5987,PAYLOAD,2023-06-05 18:38:38,15.69922196,0.0003437,69.9971,172.0663,268.4951,91.5851,6.8653e-06,6.13e-06,0.0,0 STARLINK-5987,1 56455U 23064H   23156.77683128  .00000613  00000-0  68653-5 0  9992,2 56455  69.9971 172.0663 0003437 268.4951  91.5851 15.69922196  4110,6737.257,91.724,361.437,356.806,0.0
56455.0,STARLINK-5987,PAYLOAD,2023-06-06 11:27:54,15.69926112,0.0003491,69.9971,170.0963,269.2382,90.8414,1.8797e-06,1.3e-07,0.0,0 STARLINK-5987,1 56455U 23064H   23157.47771375  .00000013  00000-0  18797-5 0  9990,2 56455  69.9971 170.0963 0003491 269.2382  90.8414 15.69926112  4229,6737.245,91.724,361.462,356.758,0.0
56455.0,STARLINK-5987,PAYLOAD,2023-06-06 12:59:39,15.69926013,0.0003433,69.9973,169.9174,269.3972,90.683,6.6247e-06,5.84e-06,0.0,0 STARLINK-5987,1 56455U 23064H   23157.54142977  .00000584  00000-0  66247-5 0  9994,2 56455  69.9973 169.9174 0003433 269.3972  90.6830 15.69926013  4583,6737.246,91.724,361.424,356.798,0.0
56455.0,STARLINK-5987,PAYLOAD,2023-06-07 10:24:11,15.69920769,0.0003339,69.9976,167.4093,264.7858,95.2957,3.6404e-06,2.25e-06,0.0,0 STARLINK-5987,1 56455U 23064H   23158.43346866  .00000225  00000-0  36404-5 0  9990,2 56455  69.9976 167.4093 0003339 264.7858  95.2957 15.69920769  4725,6737.261,91.724,361.375,356.876,0.0
56455.0,STARLINK-5987,PAYLOAD,2023-06-07 11:55:56,15.69924242,0.000347,69.9975,167.2301,267.1196,92.9602,6.6454e-06,5.86e-06,0.0,0 STARLINK-5987,1 56455U 23064H   23158.49718244  .00000586  00000-0  66454-5 0  9997,2 56455  69.9975 167.2301 0003470 267.1196  92.9602 15.69924242  4385,6737.251,91.724,361.454,356.778,0.0
56455.0,STARLINK-5987,PAYLOAD,2023-06-07 18:02:56,15.69929411,0.0003624,69.9971,166.5137,264.5454,95.5329,1.663e-05,1.788e-05,0.0,0 STARLINK-5987,1 56455U 23064H   23158.75204329  .00001788  00000-0  16630-4 0  9995,2 56455  69.9971 166.5137 0003624 264.5454  95.5329 15.69929411  4770,6737.236,91.724,361.543,356.659,0.0
56455.0,STARLINK-5987,PAYLOAD,2023-06-08 01:41:43,15.69915064,0.0003694,69.9986,165.618,263.3361,96.7414,-9.2048e-07,-3.24e-06,0.0,0 STARLINK-5987,1 56455U 23064H   23159.07063974 -.00000324  00000-0 -92048-6 0  9996,2 56455  69.9986 165.6180 0003694 263.3361  96.7414 15.69915064  4828,6737.277,91.725,361.631,356.653,0.0
